TDRS 3                  
1 19548U 88091B   17137.49253264 -.00000299  00000-0  00000-0 0  9998
2 19548  14.4399   8.2797 0036780 315.7552  26.2532  1.00268119 92092
SKYNET 4C               
1 20776U 90079A   17136.30220177  .00000127  00000-0  00000-0 0  9997
2 20776  13.8155  16.4293 0002588  42.2142 317.7685  1.00275484 97644
TDRS 5                  
1 21639U 91054B   17137.76789321  .00000087  00000-0  00000-0 0  9997
2 21639  14.3579  21.7385 0024576 348.6917 333.9277  1.00272113 94442
TDRS 6                  
1 22314U 93003B   17137.35933247 -.00000291  00000-0  00000-0 0  9995
2 22314  13.8838  24.6636 0005026 307.1349 346.9201  1.00276157 89171
INTELSAT 701 (IS-701)   
1 22871U 93066A   17137.18035498 -.00000266  00000-0  00000-0 0  9996
2 22871   4.1390  67.1735 0001821   2.8458 193.7395  1.00026583 86081
ASTRA 1D                
1 23331U 94070A   17137.42391674 -.00000286  00000-0  00000-0 0  9994
2 23331   7.5181  49.5045 0003742 354.3350 296.7611  1.00272729 82891
BRASILSAT B2            
1 23536U 95016A   17137.24690483 -.00000277  00000-0  00000-0 0  9992
2 23536   7.1411  51.3950 0002348  19.2006 185.4062  1.00269946 81049
AMSC 1                  
1 23553U 95019A   17136.74647302 -.00000114  00000-0  00000-0 0  9990
2 23553  10.0458  40.1576 0004868 349.7930  10.1112  1.00272456 80902
TDRS 7                  
1 23613U 95035B   17137.53429007 -.00000201  00000-0  00000-0 0  9990
2 23613  14.9637  15.4425 0031554   0.2892 136.8861  1.00273110 79988
ECHOSTAR 1              
1 23754U 95073A   17137.50012459 -.00000242  00000-0  00000-0 0  9999
2 23754   0.7486  90.2507 0003057 342.5652 265.3676  1.00270604 19143
INMARSAT 3-F1           
1 23839U 96020A   17137.67215552  .00000008  00000-0  00000-0 0  9992
2 23839   3.9289  67.6378 0005808 344.8932 129.4785  1.00272574 77052
ASTRA 1F                
1 23842U 96021A   17137.15220917  .00000137  00000-0  00000-0 0  9994
2 23842   0.0686 305.8373 0004139 122.2192 266.0894  1.00272126 19079
MSAT M1                 
1 23846U 96022A   17136.78268430 -.00000083  00000-0  00000-0 0  9990
2 23846   7.7071  49.0387 0005271   4.7644 355.1145  1.00272279 77141
INMARSAT 3-F2           
1 24307U 96053A   17137.25454118 -.00000125  00000-0  00000-0 0  9997
2 24307   2.5664  77.8524 0006055 320.0338 273.4003  1.00272264 75756
AMC-1 (GE-1)            
1 24315U 96054A   17136.94170941  .00000058  00000-0  00000-0 0  9995
2 24315   1.5039  85.1692 0003262 347.5080  12.0339  1.00272745 13051
AFRICASAT-2 (MEASAT-2)  
1 24653U 96063B   17137.64909409 -.00000226  00000-0  00000-0 0  9995
2 24653   7.4411  49.9229 0006189 186.8238  20.4649  1.00271178 75086
INMARSAT 3-F3           
1 24674U 96070A   17137.40729681  .00000038  00000-0  00000-0 0  9992
2 24674   3.3741  71.9063 0005869 342.9128 145.2399  1.00274844 74707
AMC-2 (GE-2)            
1 24713U 97002A   17137.31065877 -.00000211  00000-0  00000-0 0  9996
2 24713   4.2809  66.0913 0005424 352.4750 203.6211  1.00274265 74315
INTELSAT 26 (IS-26)     
1 24732U 97007A   17136.77536236  .00000004  00000-0  00000-0 0  9992
2 24732   7.4145  50.2534 0005835 355.5181 172.2697  1.00271773 39463
GALAXY 25 (G-25)        
1 24812U 97026A   17136.60730865 -.00000164  00000-0  00000-0 0  9996
2 24812   0.0081  18.3293 0003519  29.9079 311.8039  1.00271855 73080
ABS-3                   
1 24901U 97042A   17137.09023316 -.00000192  00000-0  00000-0 0  9994
2 24901   4.8343  63.4376 0007965 337.6506 311.8008  1.00268892 72271
INTELSAT 5 (IS-5)       
1 24916U 97046A   17137.10855600 -.00000142  00000-0  00000-0 0  9990
2 24916   3.4884  71.2401 0003388 336.0240  23.7028  1.00271157 72359
AMC-3 (GE-3)            
1 24936U 97050A   17137.49463661 -.00000260  00000-0  00000-0 0  9992
2 24936   0.3158  91.9985 0002875 329.4499 280.0106  1.00271458 72178
NSS-5                   
1 24957U 97053A   17137.52958622  .00000108  00000-0  00000-0 0  9998
2 24957   3.7813  69.4405 0003436 346.1458  60.9787  1.00270339 71916
ECHOSTAR 3              
1 25004U 97059A   17136.74200042 -.00000283  00000-0  00000-0 0  9992
2 25004   2.0930  80.3509 0001130 320.3229  39.2994  1.00272289 71788
JCSAT-1B                
1 25067U 97075A   17137.64879326 -.00000206  00000-0  00000-0 0  9991
2 25067   5.5095  59.0968 0003213 328.0543 231.9765  1.00271749 74091
ASTRA 1G                
1 25071U 97076A   17136.96800764  .00000106  00000-0  00000-0 0  9999
2 25071   2.2604  78.4916 0003226 338.0894 217.8686  1.00270605 71281
BRASILSAT B3            
1 25152U 98006A   17136.71344886 -.00000283  00000-0  00000-0 0  9991
2 25152   3.9746  68.5093 0003052 340.0121  19.7377  1.00271168 70656
INMARSAT 3-F5           
1 25153U 98006B   17137.32393654 -.00000287  00000-0  00000-0 0  9991
2 25153   2.5162  74.2339 0005243 343.5096 240.0598  1.00276180 70613
NSS-806                 
1 25239U 98014A   17137.23676084 -.00000280  00000-0  00000-0 0  9999
2 25239   0.0642  32.5844 0004413  25.7519 214.5299  1.00272719 70381
CHINASAT 5A (ZX 5A)     
1 25354U 98033A   17137.77895712 -.00000355  00000-0  00000-0 0  9991
2 25354   1.1789  87.2185 0002114 266.0140 288.3207  1.00267364 73970
THOR III                
1 25358U 98035A   17136.52493701 -.00000043  00000-0  00000-0 0  9995
2 25358   5.3737  59.2816 0001990 345.0255  14.7801  1.00271847 69572
INTELSAT 805 (IS-805)   
1 25371U 98037A   17137.60821698 -.00000032  00000-0  00000-0 0  9990
2 25371   0.0182 289.9845 0003366 131.5663 201.8942  1.00271849 69282
ASTRA 2A                
1 25462U 98050A   17137.72900816 -.00000361  00000-0  00000-0 0  9994
2 25462   0.0511 248.0040 0002470 159.8245 203.7526  1.00273086 13087
AFRISTAR                
1 25515U 98063A   17136.97685635  .00000124  00000-0  00000-0 0  9998
2 25515   3.2428  69.7813 0003860 345.9571 191.8006  1.00274905 67673
JCSAT-4A                
1 25630U 99006A   17137.52513903 -.00000349  00000-0  00000-0 0  9994
2 25630   2.2327  80.1631 0001959 278.0138 168.5791  1.00590051 17349
SKYNET 4E               
1 25639U 99009B   17136.89563267  .00000023  00000-0  00000-0 0  9991
2 25639  10.1077  28.8455 0002395  18.0824 156.2342  1.00271636 18128
ASIASAT 3S              
1 25657U 99013A   17137.24192807 -.00000237  00000-0  00000-0 0  9992
2 25657   2.4471  78.3716 0003570 333.6414  56.2647  1.00270785 66558
NIMIQ 1                 
1 25740U 99027A   17137.31203045 -.00000200  00000-0  00000-0 0  9995
2 25740   0.0331  82.6716 0006076 323.9790 214.3900  1.00271778 65844
ASTRA 1H                
1 25785U 99033A   17136.96780944  .00000137  00000-0  00000-0 0  9997
2 25785   3.7653  69.5987 0003082 341.4005 215.7740  1.00274597 65515
TELKOM 1                
1 25880U 99042A   17137.73051275 -.00000346  00000-0  00000-0 0  9990
2 25880   0.0043 147.8646 0001510 309.2275 149.5561  1.00273077 65125
ABS-7                   
1 25894U 99046A   17137.62271558 -.00000364  00000-0  00000-0 0  9995
2 25894   0.0165 269.0543 0003523 180.7745 125.9433  1.00268908 63860
ABS-6                   
1 25924U 99053A   17136.90614003 -.00000121  00000-0  00000-0 0  9994
2 25924   0.0205 324.4895 0003261 118.1993 277.3595  1.00273092 64619
TELSTAR 12 (ORION 2)    
1 25949U 99059A   17137.62505147 -.00000063  00000-0  00000-0 0  9990
2 25949   0.8711  88.8263 0003106 330.2150 292.3034  1.00272294 64265
AMC-4 (GE-4)            
1 25954U 99060A   17136.53502958 -.00000274  00000-0  00000-0 0  9998
2 25954   0.0474  88.8269 0002809 348.6024 282.6132  1.00270518 10468
GALAXY 11 (G-11)        
1 26038U 99071A   17137.15220917  .00000135  00000-0  00000-0 0  9990
2 26038   0.0151 260.2457 0000870  53.6129  20.8868  1.00271333 63826
HISPASAT 1C             
1 26071U 00007A   17137.20465928 -.00000213  00000-0  00000-0 0  9995
2 26071   0.5006  88.8576 0009138 319.0068 177.1653  1.00270165 14376
SUPERBIRD-B2            
1 26095U 00012A   17137.59224220 -.00000094  00000-0  00000-0 0  9994
2 26095   0.3366  94.6886 0003196 315.9049 200.0555  1.00271840 11926
ASIASTAR                
1 26107U 00016A   17137.63379330 -.00000334  00000-0  00000-0 0  9997
2 26107   1.6105  81.9597 0004336 338.3906 148.3709  1.00272186 62667
EUTELSAT 16C            
1 26243U 00019A   17137.06122714  .00000091  00000-0  00000-0 0  9999
2 26243   4.2087  66.4739 0002458 347.2766 217.7133  1.00271607 62511
EUTELSAT 80A            
1 26369U 00028A   17137.82338301 -.00000143  00000-0  00000-0 0  9992
2 26369   0.9515  85.1033 0006849   2.1276 165.3876  1.00271739 62175
TDRS 8                  
1 26388U 00034A   17137.25418129 -.00000230  00000-0  00000-0 0  9991
2 26388   7.4436  56.0941 0004767 255.8593 103.9560  1.00276052 61902
ECHOSTAR 6              
1 26402U 00038A   17137.54449175 -.00000148  00000-0  00000-0 0  9997
2 26402   4.1285  67.2537 0003669 351.9408 276.0565  1.00272345 61642
INTELSAT 9 (IS-9)       
1 26451U 00043A   17137.27911847 -.00000271  00000-0  00000-0 0  9994
2 26451   3.4738  71.4603 0003070 344.5828 236.5245  1.00270978 10877
BRASILSAT B4            
1 26469U 00046A   17136.83920969 -.00000170  00000-0  00000-0 0  9990
2 26469   1.5954  85.3125 0003555 337.3463  22.2114  1.00272185 61368
NILESAT 102             
1 26470U 00046B   17137.42962465 -.00000059  00000-0  00000-0 0  9991
2 26470   1.6169  83.7463 0004026 320.5316 338.7179  1.00271034 11926
ASTRA 2B                
1 26494U 00054A   17137.22316973  .00000118  00000-0  00000-0 0  9996
2 26494   2.1489  79.1317 0005544 348.0507 267.6606  1.00271952 13615
AMC-7 (GE-7)            
1 26495U 00054B   17136.72312098  .00000087  00000-0  00000-0 0  9990
2 26495   0.0395  68.3301 0000760 278.6288  13.0392  1.00268578 60977
NSS-11 (AAP-1)          
1 26554U 00059A   17137.73051275 -.00000347  00000-0  00000-0 0  9990
2 26554   0.0151 310.0604 0002639 124.5219 172.2149  1.00273862  8046
